IRIDIUM 116             
1 43072U 17083C   23278.52536103  .00000188  00000+0  59939-4 0  9997
2 43072  86.4030  13.9496 0002183  99.7001 260.4441 14.34218770302891
IRIDIUM 130             
1 43073U 17083D   23278.56341430  .00000683  00000+0  23675-3 0  9996
2 43073  86.4038  14.1129 0002161  91.8357 268.3087 14.34216259302847
IRIDIUM 151             
1 43074U 17083E   23278.53804560  .00000666  00000+0  23088-3 0  9991
2 43074  86.4029  13.9794 0002355  95.9995 264.1469 14.34218387302865
IRIDIUM 134             
1 43075U 17083F   23278.57610083  .00000720  00000+0  25017-3 0  9996
2 43075  86.4030  13.9580 0002001  93.1609 266.9816 14.34218026302834
IRIDIUM 137             
1 43076U 17083G   23278.79808131  .00000025  00000+0  19669-5 0  9990
2 43076  86.4030  13.9390 0002269 102.1620 257.9830 14.34212563302931
IRIDIUM 141             
1 43077U 17083H   23278.51268215  .00000702  00000+0  24374-3 0  9993
2 43077  86.4027  13.9441 0002378  91.0539 269.0929 14.34220343302894
IRIDIUM 153             
1 43078U 17083J   23278.60439017 -.00000202  00000+0 -79254-4 0  9999
2 43078  86.4007 342.3819 0002188  84.6027 275.5418 14.34215385304011
IRIDIUM 131             
1 43079U 17083K   23278.36045004  .00000571  00000+0  19670-3 0  9994
2 43079  86.4033  14.1281 0002212  90.9069 269.2380 14.34216031302804
