<?xml version="1.0" encoding="UTF-8"?>
<ndm xmlns:xsi="http://www.w3.org/2001/XMLSchema-instance" xsi:noNamespaceSchemaLocation="https://sanaregistry.org/r/ndmxml_unqualified/ndmxml-2.0.0-master-2.0.xsd">
<omm id="CCSDS_OMM_VERS" version="2.0">
<header><CREATION_DATE/><ORIGINATOR/></header><body><segment><metadata><OBJECT_NAME>IRIDIUM 116</OBJECT_NAME><OBJECT_ID>2017-083C</OBJECT_ID><CENTER_NAME>EARTH</CENTER_NAME><REF_FRAME>TEME</REF_FRAME><TIME_SYSTEM>UTC</TIME_SYSTEM><MEAN_ELEMENT_THEORY>SGP4</MEAN_ELEMENT_THEORY></metadata><data><meanElements><EPOCH>2023-10-05T12:36:31.192992</EPOCH><MEAN_MOTION>14.34218770</MEAN_MOTION><ECCENTRICITY>.0002183</ECCENTRICITY><INCLINATION>86.4030</INCLINATION><RA_OF_ASC_NODE>13.9496</RA_OF_ASC_NODE><ARG_OF_PERICENTER>99.7001</ARG_OF_PERICENTER><MEAN_ANOMALY>260.4441</MEAN_ANOMALY></meanElements><tleParameters><EPHEMERIS_TYPE>0</EPHEMERIS_TYPE><CLASSIFICATION_TYPE>U</CLASSIFICATION_TYPE><NORAD_CAT_ID>43072</NORAD_CAT_ID><ELEMENT_SET_NO>999</ELEMENT_SET_NO><REV_AT_EPOCH>30289</REV_AT_EPOCH><BSTAR>.59939E-4</BSTAR><MEAN_MOTION_DOT>.188E-5</MEAN_MOTION_DOT><MEAN_MOTION_DDOT>0</MEAN_MOTION_DDOT></tleParameters></data></segment></body></omm>
<omm id="CCSDS_OMM_VERS" version="2.0">
<header><CREATION_DATE/><ORIGINATOR/></header><body><segment><metadata><OBJECT_NAME>IRIDIUM 130</OBJECT_NAME><OBJECT_ID>2017-083D</OBJECT_ID><CENTER_NAME>EARTH</CENTER_NAME><REF_FRAME>TEME</REF_FRAME><TIME_SYSTEM>UTC</TIME_SYSTEM><MEAN_ELEMENT_THEORY>SGP4</MEAN_ELEMENT_THEORY></metadata><data><meanElements><EPOCH>2023-10-05T13:31:18.995520</EPOCH><MEAN_MOTION>14.34216259</MEAN_MOTION><ECCENTRICITY>.0002161</ECCENTRICITY><INCLINATION>86.4038</INCLINATION><RA_OF_ASC_NODE>14.1129</RA_OF_ASC_NODE><ARG_OF_PERICENTER>91.8357</ARG_OF_PERICENTER><MEAN_ANOMALY>268.3087</MEAN_ANOMALY></meanElements><tleParameters><EPHEMERIS_TYPE>0</EPHEMERIS_TYPE><CLASSIFICATION_TYPE>U</CLASSIFICATION_TYPE><NORAD_CAT_ID>43073</NORAD_CAT_ID><ELEMENT_SET_NO>999</ELEMENT_SET_NO><REV_AT_EPOCH>30284</REV_AT_EPOCH><BSTAR>.23675E-3</BSTAR><MEAN_MOTION_DOT>.683E-5</MEAN_MOTION_DOT><MEAN_MOTION_DDOT>0</MEAN_MOTION_DDOT></tleParameters></data></segment></body></omm>
<omm id="CCSDS_OMM_VERS" version="2.0">
<header><CREATION_DATE/><ORIGINATOR/></header><body><segment><metadata><OBJECT_NAME>IRIDIUM 151</OBJECT_NAME><OBJECT_ID>2017-083E</OBJECT_ID><CENTER_NAME>EARTH</CENTER_NAME><REF_FRAME>TEME</REF_FRAME><TIME_SYSTEM>UTC</TIME_SYSTEM><MEAN_ELEMENT_THEORY>SGP4</MEAN_ELEMENT_THEORY></metadata><data><meanElements><EPOCH>2023-10-05T12:54:47.139840</EPOCH><MEAN_MOTION>14.34218387</MEAN_MOTION><ECCENTRICITY>.0002355</ECCENTRICITY><INCLINATION>86.4029</INCLINATION><RA_OF_ASC_NODE>13.9794</RA_OF_ASC_NODE><ARG_OF_PERICENTER>95.9995</ARG_OF_PERICENTER><MEAN_ANOMALY>264.1469</MEAN_ANOMALY></meanElements><tleParameters><EPHEMERIS_TYPE>0</EPHEMERIS_TYPE><CLASSIFICATION_TYPE>U</CLASSIFICATION_TYPE><NORAD_CAT_ID>43074</NORAD_CAT_ID><ELEMENT_SET_NO>999</ELEMENT_SET_NO><REV_AT_EPOCH>30286</REV_AT_EPOCH><BSTAR>.23088E-3</BSTAR><MEAN_MOTION_DOT>.666E-5</MEAN_MOTION_DOT><MEAN_MOTION_DDOT>0</MEAN_MOTION_DDOT></tleParameters></data></segment></body></omm>
<omm id="CCSDS_OMM_VERS" version="2.0">
<header><CREATION_DATE/><ORIGINATOR/></header><body><segment><metadata><OBJECT_NAME>IRIDIUM 134</OBJECT_NAME><OBJECT_ID>2017-083F</OBJECT_ID><CENTER_NAME>EARTH</CENTER_NAME><REF_FRAME>TEME</REF_FRAME><TIME_SYSTEM>UTC</TIME_SYSTEM><MEAN_ELEMENT_THEORY>SGP4</MEAN_ELEMENT_THEORY></metadata><data><meanElements><EPOCH>2023-10-05T13:49:35.111712</EPOCH><MEAN_MOTION>14.34218026</MEAN_MOTION><ECCENTRICITY>.0002001</ECCENTRICITY><INCLINATION>86.4030</INCLINATION><RA_OF_ASC_NODE>13.9580</RA_OF_ASC_NODE><ARG_OF_PERICENTER>93.1609</ARG_OF_PERICENTER><MEAN_ANOMALY>266.9816</MEAN_ANOMALY></meanElements><tleParameters><EPHEMERIS_TYPE>0</EPHEMERIS_TYPE><CLASSIFICATION_TYPE>U</CLASSIFICATION_TYPE><NORAD_CAT_ID>43075</NORAD_CAT_ID><ELEMENT_SET_NO>999</ELEMENT_SET_NO><REV_AT_EPOCH>30283</REV_AT_EPOCH><BSTAR>.25017E-3</BSTAR><MEAN_MOTION_DOT>.72E-5</MEAN_MOTION_DOT><MEAN_MOTION_DDOT>0</MEAN_MOTION_DDOT></tleParameters></data></segment></body></omm>
<omm id="CCSDS_OMM_VERS" version="2.0">
<header><CREATION_DATE/><ORIGINATOR/></header><body><segment><metadata><OBJECT_NAME>IRIDIUM 137</OBJECT_NAME><OBJECT_ID>2017-083G</OBJECT_ID><CENTER_NAME>EARTH</CENTER_NAME><REF_FRAME>TEME</REF_FRAME><TIME_SYSTEM>UTC</TIME_SYSTEM><MEAN_ELEMENT_THEORY>SGP4</MEAN_ELEMENT_THEORY></metadata><data><meanElements><EPOCH>2023-10-05T19:09:14.225184</EPOCH><MEAN_MOTION>14.34212563</MEAN_MOTION><ECCENTRICITY>.0002269</ECCENTRICITY><INCLINATION>86.4030</INCLINATION><RA_OF_ASC_NODE>13.9390</RA_OF_ASC_NODE><ARG_OF_PERICENTER>102.1620</ARG_OF_PERICENTER><MEAN_ANOMALY>257.9830</MEAN_ANOMALY></meanElements><tleParameters><EPHEMERIS_TYPE>0</EPHEMERIS_TYPE><CLASSIFICATION_TYPE>U</CLASSIFICATION_TYPE><NORAD_CAT_ID>43076</NORAD_CAT_ID><ELEMENT_SET_NO>999</ELEMENT_SET_NO><REV_AT_EPOCH>30293</REV_AT_EPOCH><BSTAR>.19669E-5</BSTAR><MEAN_MOTION_DOT>.25E-6</MEAN_MOTION_DOT><MEAN_MOTION_DDOT>0</MEAN_MOTION_DDOT></tleParameters></data></segment></body></omm>
<omm id="CCSDS_OMM_VERS" version="2.0">
<header><CREATION_DATE/><ORIGINATOR/></header><body><segment><metadata><OBJECT_NAME>IRIDIUM 141</OBJECT_NAME><OBJECT_ID>2017-083H</OBJECT_ID><CENTER_NAME>EARTH</CENTER_NAME><REF_FRAME>TEME</REF_FRAME><TIME_SYSTEM>UTC</TIME_SYSTEM><MEAN_ELEMENT_THEORY>SGP4</MEAN_ELEMENT_THEORY></metadata><data><meanElements><EPOCH>2023-10-05T12:18:15.737760</EPOCH><MEAN_MOTION>14.34220343</MEAN_MOTION><ECCENTRICITY>.0002378</ECCENTRICITY><INCLINATION>86.4027</INCLINATION><RA_OF_ASC_NODE>13.9441</RA_OF_ASC_NODE><ARG_OF_PERICENTER>91.0539</ARG_OF_PERICENTER><MEAN_ANOMALY>269.0929</MEAN_ANOMALY></meanElements><tleParameters><EPHEMERIS_TYPE>0</EPHEMERIS_TYPE><CLASSIFICATION_TYPE>U</CLASSIFICATION_TYPE><NORAD_CAT_ID>43077</NORAD_CAT_ID><ELEMENT_SET_NO>999</ELEMENT_SET_NO><REV_AT_EPOCH>30289</REV_AT_EPOCH><BSTAR>.24374E-3</BSTAR><MEAN_MOTION_DOT>.702E-5</MEAN_MOTION_DOT><MEAN_MOTION_DDOT>0</MEAN_MOTION_DDOT></tleParameters></data></segment></body></omm>
<omm id="CCSDS_OMM_VERS" version="2.0">
<header><CREATION_DATE/><ORIGINATOR/></header><body><segment><metadata><OBJECT_NAME>IRIDIUM 153</OBJECT_NAME><OBJECT_ID>2017-083J</OBJECT_ID><CENTER_NAME>EARTH</CENTER_NAME><REF_FRAME>TEME</REF_FRAME><TIME_SYSTEM>UTC</TIME_SYSTEM><MEAN_ELEMENT_THEORY>SGP4</MEAN_ELEMENT_THEORY></metadata><data><meanElements><EPOCH>2023-10-05T14:30:19.310688</EPOCH><MEAN_MOTION>14.34215385</MEAN_MOTION><ECCENTRICITY>.0002188</ECCENTRICITY><INCLINATION>86.4007</INCLINATION><RA_OF_ASC_NODE>342.3819</RA_OF_ASC_NODE><ARG_OF_PERICENTER>84.6027</ARG_OF_PERICENTER><MEAN_ANOMALY>275.5418</MEAN_ANOMALY></meanElements><tleParameters><EPHEMERIS_TYPE>0</EPHEMERIS_TYPE><CLASSIFICATION_TYPE>U</CLASSIFICATION_TYPE><NORAD_CAT_ID>43078</NORAD_CAT_ID><ELEMENT_SET_NO>999</ELEMENT_SET_NO><REV_AT_EPOCH>30401</REV_AT_EPOCH><BSTAR>-.79254E-4</BSTAR><MEAN_MOTION_DOT>-.202E-5</MEAN_MOTION_DOT><MEAN_MOTION_DDOT>0</MEAN_MOTION_DDOT></tleParameters></data></segment></body></omm>
<omm id="CCSDS_OMM_VERS" version="2.0">
<header><CREATION_DATE/><ORIGINATOR/></header><body><segment><metadata><OBJECT_NAME>IRIDIUM 131</OBJECT_NAME><OBJECT_ID>2017-083K</OBJECT_ID><CENTER_NAME>EARTH</CENTER_NAME><REF_FRAME>TEME</REF_FRAME><TIME_SYSTEM>UTC</TIME_SYSTEM><MEAN_ELEMENT_THEORY>SGP4</MEAN_ELEMENT_THEORY></metadata><data><meanElements><EPOCH>2023-10-05T08:39:02.883456</EPOCH><MEAN_MOTION>14.34216031</MEAN_MOTION><ECCENTRICITY>.0002212</ECCENTRICITY><INCLINATION>86.4033</INCLINATION><RA_OF_ASC_NODE>14.1281</RA_OF_ASC_NODE><ARG_OF_PERICENTER>90.9069</ARG_OF_PERICENTER><MEAN_ANOMALY>269.2380</MEAN_ANOMALY></meanElements><tleParameters><EPHEMERIS_TYPE>0</EPHEMERIS_TYPE><CLASSIFICATION_TYPE>U</CLASSIFICATION_TYPE><NORAD_CAT_ID>43079</NORAD_CAT_ID><ELEMENT_SET_NO>999</ELEMENT_SET_NO><REV_AT_EPOCH>30280</REV_AT_EPOCH><BSTAR>.1967E-3</BSTAR><MEAN_MOTION_DOT>.571E-5</MEAN_MOTION_DOT><MEAN_MOTION_DDOT>0</MEAN_MOTION_DDOT></tleParameters></data></segment></body></omm>

</ndm>
